{
  "type": "FeatureCollection",
  "features": [
    {
      "type": "Feature",
      "properties": {
        "norad_id": 66850,
        "name": "STARLINK-36105",
        "group": "last-30-days",
        "lat": 0.9856872587567065,
        "lon": -92.80393825332203,
        "alt_km": 340.3676816621728,
        "timestamp": "2025-12-18T07:01:53.341863+00:00",
        "meta_object_name": "STARLINK-36105",
        "meta_object_id": "2025-281C",
        "meta_epoch": "2025-12-17T22:00:01.999584",
        "meta_mean_motion": 15.77545121,
        "meta_eccentricity": 0.0001637,
        "meta_inclination": 43.0007,
        "meta_ra_of_asc_node": 90.544,
        "meta_arg_of_pericenter": 271.9729,
        "meta_mean_anomaly": 287.648,
        "meta_ephemeris_type": 0,
        "meta_classification_type": "U",
        "meta_norad_cat_id": 66850,
        "meta_element_set_no": 999,
        "meta_rev_at_epoch": 222,
        "meta_bstar": -0.0087822637,
        "meta_mean_motion_dot": -0.01345577,
        "meta_mean_motion_ddot": 0,
        "tle_line1": "1 66850U 25281C   25351.91668981 -.01345577  00000+0 -87823-2 0  9990",
        "tle_line2": "2 66850  43.0007  90.5440 0001637 271.9729 287.6480 15.77545121  2226"
      },
      "geometry": {
        "type": "Point",
        "coordinates": [
          -92.80393825332203,
          0.9856872587567065
        ]
      }
    },
    {
      "type": "Feature",
      "properties": {
        "norad_id": 66851,
        "name": "STARLINK-36094",
        "group": "last-30-days",
        "lat": -0.4086299871929331,
        "lon": -91.31306220220735,
        "alt_km": 340.82773053657274,
        "timestamp": "2025-12-18T07:01:53.341873+00:00",
        "meta_object_name": "STARLINK-36094",
        "meta_object_id": "2025-281D",
        "meta_epoch": "2025-12-17T22:00:01.999584",
        "meta_mean_motion": 15.77484137,
        "meta_eccentricity": 0.00014599,
        "meta_inclination": 43.0008,
        "meta_ra_of_asc_node": 90.5382,
        "meta_arg_of_pericenter": 278.2775,
        "meta_mean_anomaly": 283.4732,
        "meta_ephemeris_type": 0,
        "meta_classification_type": "U",
        "meta_norad_cat_id": 66851,
        "meta_element_set_no": 999,
        "meta_rev_at_epoch": 222,
        "meta_bstar": -0.0088561123,
        "meta_mean_motion_dot": -0.01352241,
        "meta_mean_motion_ddot": 0,
        "tle_line1": "1 66851U 25281D   25351.91668981 -.01352241  00000+0 -88561-2 0  9997",
        "tle_line2": "2 66851  43.0008  90.5382 0001459 278.2775 283.4732 15.77484137  2229"
      },
      "geometry": {
        "type": "Point",
        "coordinates": [
          -91.31306220220735,
          -0.4086299871929331
        ]
      }
    },
    {
      "type": "Feature",
      "properties": {
        "norad_id": 66852,
        "name": "STARLINK-35992",
        "group": "last-30-days",
        "lat": -1.7893509662285512,
        "lon": -89.8352949602498,
        "alt_km": 341.08856393411224,
        "timestamp": "2025-12-18T07:01:53.341885+00:00",
        "meta_object_name": "STARLINK-35992",
        "meta_object_id": "2025-281E",
        "meta_epoch": "2025-12-17T22:00:01.999584",
        "meta_mean_motion": 15.77421334,
        "meta_eccentricity": 0.00014217,
        "meta_inclination": 43.0009,
        "meta_ra_of_asc_node": 90.5331,
        "meta_arg_of_pericenter": 275.8761,
        "meta_mean_anomaly": 287.9855,
        "meta_ephemeris_type": 0,
        "meta_classification_type": "U",
        "meta_norad_cat_id": 66852,
        "meta_element_set_no": 999,
        "meta_rev_at_epoch": 222,
        "meta_bstar": -0.008882611,
        "meta_mean_motion_dot": -0.01352402,
        "meta_mean_motion_ddot": 0,
        "tle_line1": "1 66852U 25281E   25351.91668981 -.01352402  00000+0 -88826-2 0  9991",
        "tle_line2": "2 66852  43.0009  90.5331 0001421 275.8761 287.9855 15.77421334  2227"
      },
      "geometry": {
        "type": "Point",
        "coordinates": [
          -89.8352949602498,
          -1.7893509662285512
        ]
      }
    },
    {
      "type": "Feature",
      "properties": {
        "norad_id": 66853,
        "name": "STARLINK-35986",
        "group": "last-30-days",
        "lat": -3.255658561417895,
        "lon": -88.2623193763385,
        "alt_km": 341.6565724865304,
        "timestamp": "2025-12-18T07:01:53.341895+00:00",
        "meta_object_name": "STARLINK-35986",
        "meta_object_id": "2025-281F",
        "meta_epoch": "2025-12-17T22:00:01.999584",
        "meta_mean_motion": 15.77283701,
        "meta_eccentricity": 0.00014827,
        "meta_inclination": 43.0008,
        "meta_ra_of_asc_node": 90.5271,
        "meta_arg_of_pericenter": 275.7764,
        "meta_mean_anomaly": 290.4344,
        "meta_ephemeris_type": 0,
        "meta_classification_type": "U",
        "meta_norad_cat_id": 66853,
        "meta_element_set_no": 999,
        "meta_rev_at_epoch": 223,
        "meta_bstar": -0.0090343023,
        "meta_mean_motion_dot": -0.0136543,
        "meta_mean_motion_ddot": 0,
        "tle_line1": "1 66853U 25281F   25351.91668981 -.01365430  00000+0 -90343-2 0  9994",
        "tle_line2": "2 66853  43.0008  90.5271 0001482 275.7764 290.4344 15.77283701  2236"
      },
      "geometry": {
        "type": "Point",
        "coordinates": [
          -88.2623193763385,
          -3.255658561417895
        ]
      }
    },
    {
      "type": "Feature",
      "properties": {
        "norad_id": 66854,
        "name": "STARLINK-36087",
        "group": "last-30-days",
        "lat": -4.688661912622569,
        "lon": -86.71872316737087,
        "alt_km": 342.12960591539195,
        "timestamp": "2025-12-18T07:01:53.341907+00:00",
        "meta_object_name": "STARLINK-36087",
        "meta_object_id": "2025-281G",
        "meta_epoch": "2025-12-17T22:00:01.999584",
        "meta_mean_motion": 15.77155246,
        "meta_eccentricity": 0.00015366,
        "meta_inclination": 43.0008,
        "meta_ra_of_asc_node": 90.5206,
        "meta_arg_of_pericenter": 273.4308,
        "meta_mean_anomaly": 295.0701,
        "meta_ephemeris_type": 0,
        "meta_classification_type": "U",
        "meta_norad_cat_id": 66854,
        "meta_element_set_no": 999,
        "meta_rev_at_epoch": 223,
        "meta_bstar": -0.0091686206,
        "meta_mean_motion_dot": -0.01376412,
        "meta_mean_motion_ddot": 0,
        "tle_line1": "1 66854U 25281G   25351.91668981 -.01376412  00000+0 -91686-2 0  9998",
        "tle_line2": "2 66854  43.0008  90.5206 0001536 273.4308 295.0701 15.77155246  2234"
      },
      "geometry": {
        "type": "Point",
        "coordinates": [
          -86.71872316737087,
          -4.688661912622569
        ]
      }
    },
    {
      "type": "Feature",
      "properties": {
        "norad_id": 66855,
        "name": "STARLINK-36090",
        "group": "last-30-days",
        "lat": -6.064473096028309,
        "lon": -85.22666158412545,
        "alt_km": 342.5607867114395,
        "timestamp": "2025-12-18T07:01:53.341919+00:00",
        "meta_object_name": "STARLINK-36090",
        "meta_object_id": "2025-281H",
        "meta_epoch": "2025-12-17T22:00:01.999584",
        "meta_mean_motion": 15.77070745,
        "meta_eccentricity": 0.00014578,
        "meta_inclination": 43.0007,
        "meta_ra_of_asc_node": 90.5151,
        "meta_arg_of_pericenter": 277.2511,
        "meta_mean_anomaly": 293.3878,
        "meta_ephemeris_type": 0,
        "meta_classification_type": "U",
        "meta_norad_cat_id": 66855,
        "meta_element_set_no": 999,
        "meta_rev_at_epoch": 210,
        "meta_bstar": -0.0091483362,
        "meta_mean_motion_dot": -0.01369009,
        "meta_mean_motion_ddot": 0,
        "tle_line1": "1 66855U 25281H   25351.91668981 -.01369009  00000+0 -91483-2 0  9998",
        "tle_line2": "2 66855  43.0007  90.5151 0001457 277.2511 293.3878 15.77070745  2105"
      },
      "geometry": {
        "type": "Point",
        "coordinates": [
          -85.22666158412545,
          -6.064473096028309
        ]
      }
    },
    {
      "type": "Feature",
      "properties": {
        "norad_id": 66856,
        "name": "STARLINK-36072",
        "group": "last-30-days",
        "lat": -7.465223721295967,
        "lon": -83.69416081580681,
        "alt_km": 342.87906358920463,
        "timestamp": "2025-12-18T07:01:53.341929+00:00",
        "meta_object_name": "STARLINK-36072",
        "meta_object_id": "2025-281J",
        "meta_epoch": "2025-12-17T22:00:01.999584",
        "meta_mean_motion": 15.76909803,
        "meta_eccentricity": 0.00014939,
        "meta_inclination": 43.0005,
        "meta_ra_of_asc_node": 90.5102,
        "meta_arg_of_pericenter": 277.4725,
        "meta_mean_anomaly": 295.3942,
        "meta_ephemeris_type": 0,
        "meta_classification_type": "U",
        "meta_norad_cat_id": 66856,
        "meta_element_set_no": 999,
        "meta_rev_at_epoch": 223,
        "meta_bstar": -0.0084511494,
        "meta_mean_motion_dot": -0.01244773,
        "meta_mean_motion_ddot": 0,
        "tle_line1": "1 66856U 25281J   25351.91668981 -.01244773  00000+0 -84511-2 0  9993",
        "tle_line2": "2 66856  43.0005  90.5102 0001493 277.4725 295.3942 15.76909803  2232"
      },
      "geometry": {
        "type": "Point",
        "coordinates": [
          -83.69416081580681,
          -7.465223721295967
        ]
      }
    }
  ]
}